[{"OBJECT_NAME":"STARLINK-2454","OBJECT_ID":"2021-027AA","EPOCH":"2026-03-09T13:45:47.366496","MEAN_MOTION":15.3018945,"ECCENTRICITY":0.0001501,"INCLINATION":53.1618,"RA_OF_ASC_NODE":165.8028,"ARG_OF_PERICENTER":80.817,"MEAN_ANOMALY":279.3,"EPHEMERIS_TYPE":0,"CLASSIFICATION_TYPE":"U","NORAD_CAT_ID":48116,"ELEMENT_SET_NO":999,"REV_AT_EPOCH":27249,"BSTAR":5.7234e-7,"MEAN_MOTION_DOT":-3.42e-6,"MEAN_MOTION_DDOT":0},{"OBJECT_NAME":"LYNK TOWER 6","OBJECT_ID":"2024-043AB","EPOCH":"2026-03-09T21:28:38.303328","MEAN_MOTION":15.29548678,"ECCENTRICITY":0.00097492,"INCLINATION":97.5426,"RA_OF_ASC_NODE":204.1954,"ARG_OF_PERICENTER":232.0253,"MEAN_ANOMALY":128.0107,"EPHEMERIS_TYPE":0,"CLASSIFICATION_TYPE":"U","NORAD_CAT_ID":59123,"ELEMENT_SET_NO":999,"REV_AT_EPOCH":11184,"BSTAR":0.00040142146,"MEAN_MOTION_DOT":0.0001144,"MEAN_MOTION_DDOT":0}]
