STARLINK-2454           
1 48116U 21027AA  26068.57346489 -.00000342  00000+0  57234-6 0  9996
2 48116  53.1618 165.8028 0001501  80.8170 279.3000 15.30189450272498
LYNK TOWER 6            
1 59123U 24043AB  26068.89488777  .00011440  00000+0  40142-3 0  9996
2 59123  97.5426 204.1954 0009749 232.0253 128.0107 15.29548678111845
